{
  "type": "FeatureCollection",
  "features": [
    {
      "type": "Feature",
      "properties": {
        "norad_id": 66954,
        "name": "HULIANWANG DIGUI-115",
        "group": "last-30-days",
        "lat": -31.700741931799374,
        "lon": 164.30591460903048,
        "alt_km": 1012.3942455334882,
        "timestamp": "2025-12-23T18:59:30.759524+00:00",
        "meta_object_name": "HULIANWANG DIGUI-115",
        "meta_object_id": "2025-287B",
        "meta_epoch": "2025-12-20T14:23:56.755680",
        "meta_mean_motion": 13.66603826,
        "meta_eccentricity": 0.00094984,
        "meta_inclination": 86.4975,
        "meta_ra_of_asc_node": 343.2967,
        "meta_arg_of_pericenter": 182.0064,
        "meta_mean_anomaly": 178.1058,
        "meta_ephemeris_type": 0,
        "meta_classification_type": "U",
        "meta_norad_cat_id": 66954,
        "meta_element_set_no": 999,
        "meta_rev_at_epoch": 160,
        "meta_bstar": -9.79328e-07,
        "meta_mean_motion_dot": 1.6e-07,
        "meta_mean_motion_ddot": 0,
        "tle_line1": "1 66954U 25287B   25354.59996245  .00000016  00000+0 -97933-6 0  9996",
        "tle_line2": "2 66954  86.4975 343.2967 0009498 182.0064 178.1058 13.66603826  1604"
      },
      "geometry": {
        "type": "Point",
        "coordinates": [
          164.30591460903048,
          -31.700741931799374
        ]
      }
    },
    {
      "type": "Feature",
      "properties": {
        "norad_id": 66955,
        "name": "HULIANWANG DIGUI-116",
        "group": "last-30-days",
        "lat": -42.6720959279572,
        "lon": 165.36236602457606,
        "alt_km": 1013.5460997950431,
        "timestamp": "2025-12-23T18:59:30.759533+00:00",
        "meta_object_name": "HULIANWANG DIGUI-116",
        "meta_object_id": "2025-287C",
        "meta_epoch": "2025-12-20T16:07:29.631072",
        "meta_mean_motion": 13.67009251,
        "meta_eccentricity": 0.00086607,
        "meta_inclination": 86.4918,
        "meta_ra_of_asc_node": 343.2556,
        "meta_arg_of_pericenter": 174.268,
        "meta_mean_anomaly": 185.8579,
        "meta_ephemeris_type": 0,
        "meta_classification_type": "U",
        "meta_norad_cat_id": 66955,
        "meta_element_set_no": 999,
        "meta_rev_at_epoch": 161,
        "meta_bstar": 0.00012368885,
        "meta_mean_motion_dot": 1.2e-06,
        "meta_mean_motion_ddot": 0,
        "tle_line1": "1 66955U 25287C   25354.67187073  .00000120  00000+0  12369-3 0  9999",
        "tle_line2": "2 66955  86.4918 343.2556 0008660 174.2680 185.8579 13.67009251  1610"
      },
      "geometry": {
        "type": "Point",
        "coordinates": [
          165.36236602457606,
          -42.6720959279572
        ]
      }
    },
    {
      "type": "Feature",
      "properties": {
        "norad_id": 66956,
        "name": "HULIANWANG DIGUI-117",
        "group": "last-30-days",
        "lat": -60.23424189606979,
        "lon": 168.27994909805594,
        "alt_km": 1013.7217608205638,
        "timestamp": "2025-12-23T18:59:30.759542+00:00",
        "meta_object_name": "HULIANWANG DIGUI-117",
        "meta_object_id": "2025-287D",
        "meta_epoch": "2025-12-18T14:55:12.079776",
        "meta_mean_motion": 13.67770338,
        "meta_eccentricity": 0.00076767,
        "meta_inclination": 86.4971,
        "meta_ra_of_asc_node": 344.0126,
        "meta_arg_of_pericenter": 176.3616,
        "meta_mean_anomaly": 183.76,
        "meta_ephemeris_type": 0,
        "meta_classification_type": "U",
        "meta_norad_cat_id": 66956,
        "meta_element_set_no": 999,
        "meta_rev_at_epoch": 133,
        "meta_bstar": 1.0922436e-05,
        "meta_mean_motion_dot": 2.6e-07,
        "meta_mean_motion_ddot": 0,
        "tle_line1": "1 66956U 25287D   25352.62166759  .00000026  00000+0  10922-4 0  9990",
        "tle_line2": "2 66956  86.4971 344.0126 0007676 176.3616 183.7600 13.67770338  1332"
      },
      "geometry": {
        "type": "Point",
        "coordinates": [
          168.27994909805594,
          -60.23424189606979
        ]
      }
    },
    {
      "type": "Feature",
      "properties": {
        "norad_id": 66957,
        "name": "HULIANWANG DIGUI-118",
        "group": "last-30-days",
        "lat": -62.070684580576255,
        "lon": 168.76683889517676,
        "alt_km": 1015.0189218200485,
        "timestamp": "2025-12-23T18:59:30.759553+00:00",
        "meta_object_name": "HULIANWANG DIGUI-118",
        "meta_object_id": "2025-287E",
        "meta_epoch": "2025-12-21T00:50:13.849728",
        "meta_mean_motion": 13.6751011,
        "meta_eccentricity": 0.00054729,
        "meta_inclination": 86.4946,
        "meta_ra_of_asc_node": 343.1304,
        "meta_arg_of_pericenter": 170.9065,
        "meta_mean_anomaly": 189.2194,
        "meta_ephemeris_type": 0,
        "meta_classification_type": "U",
        "meta_norad_cat_id": 66957,
        "meta_element_set_no": 999,
        "meta_rev_at_epoch": 166,
        "meta_bstar": 0.00013223305,
        "meta_mean_motion_dot": 1.28e-06,
        "meta_mean_motion_ddot": 0,
        "tle_line1": "1 66957U 25287E   25355.03488252  .00000128  00000+0  13223-3 0  9993",
        "tle_line2": "2 66957  86.4946 343.1304 0005472 170.9065 189.2194 13.67510110  1668"
      },
      "geometry": {
        "type": "Point",
        "coordinates": [
          168.76683889517676,
          -62.070684580576255
        ]
      }
    },
    {
      "type": "Feature",
      "properties": {
        "norad_id": 66958,
        "name": "CZ-6A R/B",
        "group": "last-30-days",
        "lat": -30.778367643310197,
        "lon": 163.9845370727597,
        "alt_km": 978.5918111537912,
        "timestamp": "2025-12-23T18:59:30.759563+00:00",
        "meta_object_name": "CZ-6A R/B",
        "meta_object_id": "2025-287F",
        "meta_epoch": "2025-12-23T05:56:34.073376",
        "meta_mean_motion": 13.94921301,
        "meta_eccentricity": 0.0107186,
        "meta_inclination": 86.5063,
        "meta_ra_of_asc_node": 342.1059,
        "meta_arg_of_pericenter": 70.5679,
        "meta_mean_anomaly": 290.704,
        "meta_ephemeris_type": 0,
        "meta_classification_type": "U",
        "meta_norad_cat_id": 66958,
        "meta_element_set_no": 999,
        "meta_rev_at_epoch": 200,
        "meta_bstar": 3.8039872e-05,
        "meta_mean_motion_dot": 7.2e-07,
        "meta_mean_motion_ddot": 0,
        "tle_line1": "1 66958U 25287F   25357.24761659  .00000072  00000+0  38040-4 0  9997",
        "tle_line2": "2 66958  86.5063 342.1059 0107186  70.5679 290.7040 13.94921301  2002"
      },
      "geometry": {
        "type": "Point",
        "coordinates": [
          163.9845370727597,
          -30.778367643310197
        ]
      }
    },
    {
      "type": "Feature",
      "properties": {
        "norad_id": 66959,
        "name": "STARLINK-35887",
        "group": "last-30-days",
        "lat": -24.573423727799838,
        "lon": 70.26420739560626,
        "alt_km": 355.4535121432418,
        "timestamp": "2025-12-23T18:59:30.759572+00:00",
        "meta_object_name": "STARLINK-35887",
        "meta_object_id": "2025-288A",
        "meta_epoch": "2025-12-23T06:00:00.999648",
        "meta_mean_motion": 15.7401432,
        "meta_eccentricity": 0.00012668,
        "meta_inclination": 43.0005,
        "meta_ra_of_asc_node": 102.926,
        "meta_arg_of_pericenter": 272.7917,
        "meta_mean_anomaly": 220.8154,
        "meta_ephemeris_type": 0,
        "meta_classification_type": "U",
        "meta_norad_cat_id": 66959,
        "meta_element_set_no": 999,
        "meta_rev_at_epoch": 352,
        "meta_bstar": -0.014890093,
        "meta_mean_motion_dot": -0.01901079,
        "meta_mean_motion_ddot": 0,
        "tle_line1": "1 66959U 25288A   25357.25001157 -.01901079  00000+0 -14890-1 0  9994",
        "tle_line2": "2 66959  43.0005 102.9260 0001266 272.7917 220.8154 15.74014320  3528"
      },
      "geometry": {
        "type": "Point",
        "coordinates": [
          70.26420739560626,
          -24.573423727799838
        ]
      }
    },
    {
      "type": "Feature",
      "properties": {
        "norad_id": 66960,
        "name": "STARLINK-35879",
        "group": "last-30-days",
        "lat": -23.427472972393026,
        "lon": 71.93694163483872,
        "alt_km": 355.48936249569306,
        "timestamp": "2025-12-23T18:59:30.759581+00:00",
        "meta_object_name": "STARLINK-35879",
        "meta_object_id": "2025-288B",
        "meta_epoch": "2025-12-23T06:00:00.999648",
        "meta_mean_motion": 15.74030061,
        "meta_eccentricity": 0.00010835,
        "meta_inclination": 43.0006,
        "meta_ra_of_asc_node": 102.921,
        "meta_arg_of_pericenter": 273.0925,
        "meta_mean_anomaly": 222.4172,
        "meta_ephemeris_type": 0,
        "meta_classification_type": "U",
        "meta_norad_cat_id": 66960,
        "meta_element_set_no": 999,
        "meta_rev_at_epoch": 352,
        "meta_bstar": -0.014995582,
        "meta_mean_motion_dot": -0.01913685,
        "meta_mean_motion_ddot": 0,
        "tle_line1": "1 66960U 25288B   25357.25001157 -.01913685  00000+0 -14996-1 0  9999",
        "tle_line2": "2 66960  43.0006 102.9210 0001083 273.0925 222.4172 15.74030061  3524"
      },
      "geometry": {
        "type": "Point",
        "coordinates": [
          71.93694163483872,
          -23.427472972393026
        ]
      }
    }
  ]
}